[{"OBJECT_NAME":"STARLINK-4755","OBJECT_ID":"2022-114AK","EPOCH":"2026-03-09T21:08:14.687520","MEAN_MOTION":15.08836368,"ECCENTRICITY":0.00018302,"INCLINATION":53.2172,"RA_OF_ASC_NODE":293.0414,"ARG_OF_PERICENTER":89.869,"MEAN_ANOMALY":270.2512,"EPHEMERIS_TYPE":0,"CLASSIFICATION_TYPE":"U","NORAD_CAT_ID":53851,"ELEMENT_SET_NO":999,"REV_AT_EPOCH":19300,"BSTAR":5.871572e-6,"MEAN_MOTION_DOT":-1.95e-6,"MEAN_MOTION_DDOT":0},{"OBJECT_NAME":"METEOR 2-5 DEB","OBJECT_ID":"1979-095D","EPOCH":"2026-03-07T02:20:18.720096","MEAN_MOTION":15.07655153,"ECCENTRICITY":0.00106351,"INCLINATION":81.1653,"RA_OF_ASC_NODE":357.8549,"ARG_OF_PERICENTER":34.5561,"MEAN_ANOMALY":325.6353,"EPHEMERIS_TYPE":0,"CLASSIFICATION_TYPE":"U","NORAD_CAT_ID":28555,"ELEMENT_SET_NO":999,"REV_AT_EPOCH":23235,"BSTAR":0.011673296,"MEAN_MOTION_DOT":0.00182479,"MEAN_MOTION_DDOT":0}]
